[{"OBJECT_NAME":"OBJECT M","OBJECT_ID":"2025-155M","EPOCH":"2026-03-09T22:37:12.666144","MEAN_MOTION":15.33288683,"ECCENTRICITY":0.00088001,"INCLINATION":97.4429,"RA_OF_ASC_NODE":38.1052,"ARG_OF_PERICENTER":139.1253,"MEAN_ANOMALY":221.0651,"EPHEMERIS_TYPE":0,"CLASSIFICATION_TYPE":"U","NORAD_CAT_ID":64887,"ELEMENT_SET_NO":999,"REV_AT_EPOCH":6565,"BSTAR":0.00087834095,"MEAN_MOTION_DOT":0.00028279,"MEAN_MOTION_DDOT":0},{"OBJECT_NAME":"STARLINK-35088","OBJECT_ID":"2025-189X","EPOCH":"2026-03-09T16:39:07.666272","MEAN_MOTION":15.30195891,"ECCENTRICITY":0.00012529,"INCLINATION":53.1599,"RA_OF_ASC_NODE":206.9909,"ARG_OF_PERICENTER":52.8689,"MEAN_ANOMALY":307.2426,"EPHEMERIS_TYPE":0,"CLASSIFICATION_TYPE":"U","NORAD_CAT_ID":65344,"ELEMENT_SET_NO":999,"REV_AT_EPOCH":3111,"BSTAR":0.0013369662,"MEAN_MOTION_DOT":0.00039443,"MEAN_MOTION_DDOT":0}]
